CZ-8A R/B               
1 66004U 25231K   26188.38548573  .00000003  00000+0  59464-4 0  9991
2 66004  50.0052 313.3842 0116519 295.1128  63.7735 14.30160619 37838
SZ-21 MODULE            
1 66515U 25246C   26188.03423708  .00038272  00000+0  21756-3 0  9999
2 66515  41.4706 183.5562 0006294 162.6981 197.4080 15.78192992 36877
SPACEMOBILE-006         
1 67232U 25309A   26188.18193634  .00000667  00000+0  47122-4 0  9997
2 67232  52.9952 240.0450 0010676 189.1004 170.9798 15.18643108 29630
SPACEMOBILE-008         
1 69589U 26139A   26188.42315776  .00000613  00000+0  51460-4 0  9997
2 69589  52.9937 170.6933 0004638  37.6326 322.4989 15.12794365  3048
SPACEMOBILE-009         
1 69590U 26139B   26188.35850118  .00000601  00000+0  50953-4 0  9998
2 69590  52.9928 170.9976 0004891  32.8078 327.3216 15.12687590  3039
SPACEMOBILE-010         
1 69591U 26139C   26188.42681726  .00000587  00000+0  50381-4 0  9992
2 69591  52.9932 170.7141 0004773  24.0576 336.0637 15.12518827  3054
